
    {
        "ARG_OF_PERICENTER": 269.0848,
        "BSTAR": 9.1013456e-05,
        "CLASSIFICATION_TYPE": "U",
        "ECCENTRICITY": 0.00772127,
        "ELEMENT_SET_NO": 999,
        "EPHEMERIS_TYPE": 0,
        "EPOCH": "2026-06-19T14:52:19.925184",
        "INCLINATION": 97.9743,
        "MEAN_ANOMALY": 90.1513,
        "MEAN_MOTION": 14.7267956,
        "MEAN_MOTION_DDOT": 0,
        "MEAN_MOTION_DOT": 5.53e-06,
        "NORAD_CAT_ID": 40020,
        "OBJECT_ID": "2014-033L",
        "OBJECT_NAME": "BRITE-CA1 (TORONTO)",
        "RA_OF_ASC_NODE": 299.5027,
        "REV_AT_EPOCH": 64257
    },
    {
        "ARG_OF_PERICENTER": 113.868,
        "BSTAR": 0.00089915901,
        "CLASSIFICATION_TYPE": "U",
        "ECCENTRICITY": 0.0002814,
        "ELEMENT_SET_NO": 999,
        "EPHEMERIS_TYPE": 0,
        "EPOCH": "2026-06-18T16:25:31.161216",
        "INCLINATION": 98.0447,
        "MEAN_ANOMALY": 246.2872,
        "MEAN_MOTION": 15.64848252,
        "MEAN_MOTION_DDOT": 0,
        "MEAN_MOTION_DOT": 0.00088318,
        "NORAD_CAT_ID": 40021,
        "OBJECT_ID": "2014-033M",
        "OBJECT_NAME": "DUCHIFAT-1",
        "RA_OF_ASC_NODE": 229.0553,
        "REV_AT_EPOCH": 65598
    },
    {
        "ARG_OF_PERICENTER": 156.7506,
        "BSTAR": 0.00045550644,
        "CLASSIFICATION_TYPE": "U",
        "ECCENTRICITY": 0.00045799,
        "ELEMENT_SET_NO": 999,
        "EPHEMERIS_TYPE": 0,
        "EPOCH": "2026-06-19T13:22:54.186240",
        "INCLINATION": 98.0718,
        "MEAN_ANOMALY": 203.3942,
        "MEAN_MOTION": 15.31519483,
        "MEAN_MOTION_DDOT": 0,
        "MEAN_MOTION_DOT": 0.00013791,
        "NORAD_CAT_ID": 40024,
        "OBJECT_ID": "2014-033Q",
        "OBJECT_NAME": "NANOSATC-BR1",
        "RA_OF_ASC_NODE": 203.1557,
        "REV_AT_EPOCH": 65434
    },
    {
        "ARG_OF_PERICENTER": 207.6997,
        "BSTAR": 0.00033443702,
        "CLASSIFICATION_TYPE": "U",
        "ECCENTRICITY": 0.00080059,
        "ELEMENT_SET_NO": 999,
        "EPHEMERIS_TYPE": 0,
        "EPOCH": "2026-06-19T06:13:02.525664",
        "INCLINATION": 98.0964,
        "MEAN_ANOMALY": 152.381,
        "MEAN_MOTION": 15.18285787,
        "MEAN_MOTION_DDOT": 0,
        "MEAN_MOTION_DOT": 6.785e-05,
        "NORAD_CAT_ID": 40025,
        "OBJECT_ID": "2014-033R",
        "OBJECT_NAME": "QB50P1",
        "RA_OF_ASC_NODE": 181.5504,
        "REV_AT_EPOCH": 65334
    },
    {
        "ARG_OF_PERICENTER": 156.5164,
        "BSTAR": 0.00034510505,
        "CLASSIFICATION_TYPE": "U",
        "ECCENTRICITY": 0.00081921,
        "ELEMENT_SET_NO": 999,
        "EPHEMERIS_TYPE": 0,
        "EPOCH": "2026-06-19T11:27:41.239296",
        "INCLINATION": 98.0755,
        "MEAN_ANOMALY": 203.6442,
        "MEAN_MOTION": 15.15183403,
        "MEAN_MOTION_DDOT": 0,
        "MEAN_MOTION_DOT": 6.408e-05,
        "NORAD_CAT_ID": 40032,
        "OBJECT_ID": "2014-033Y",
        "OBJECT_NAME": "QB50P2",
        "RA_OF_ASC_NODE": 167.5004,
        "REV_AT_EPOCH": 65301
    },
    {
        "ARG_OF_PERICENTER": 295.2268,
        "BSTAR": 0.00010940118,
        "CLASSIFICATION_TYPE": "U",
        "ECCENTRICITY": 0.00103896,
        "ELEMENT_SET_NO": 999,
        "EPHEMERIS_TYPE": 0,
        "EPOCH": "2026-06-19T14:32:06.914976",
        "INCLINATION": 97.9967,
        "MEAN_ANOMALY": 64.7875,
        "MEAN_MOTION": 14.9551427,
        "MEAN_MOTION_DDOT": 0,
        "MEAN_MOTION_DOT": 1.152e-05,
        "NORAD_CAT_ID": 40037,
        "OBJECT_ID": "2014-033AD",
        "OBJECT_NAME": "PERSEUS-M2",
        "RA_OF_ASC_NODE": 121.1954,
        "REV_AT_EPOCH": 65114
    },
    {
        "ARG_OF_PERICENTER": 292.2356,
        "BSTAR": 0.000128992,
        "CLASSIFICATION_TYPE": "U",
        "ECCENTRICITY": 0.00101335,
        "ELEMENT_SET_NO": 999,
        "EPHEMERIS_TYPE": 0,
        "EPOCH": "2026-06-19T13:52:58.534464",
        "INCLINATION": 97.964,
        "MEAN_ANOMALY": 67.779,
        "MEAN_MOTION": 14.95636995,
        "MEAN_MOTION_DDOT": 0,
        "MEAN_MOTION_DOT": 1.374e-05,
        "NORAD_CAT_ID": 40039,
        "OBJECT_ID": "2014-033AF",
        "OBJECT_NAME": "PERSEUS-M1",
        "RA_OF_ASC_NODE": 114.7493,
        "REV_AT_EPOCH": 65099
    },
    {
        "ARG_OF_PERICENTER": 135.2104,
        "BSTAR": 0.00050656451,
        "CLASSIFICATION_TYPE": "U",
        "ECCENTRICITY": 0.00087522,
        "ELEMENT_SET_NO": 999,
        "EPHEMERIS_TYPE": 0,
        "EPOCH": "2026-06-19T08:04:26.402880",
        "INCLINATION": 98.0941,
        "MEAN_ANOMALY": 224.9844,
        "MEAN_MOTION": 15.33319639,
        "MEAN_MOTION_DDOT": 0,
        "MEAN_MOTION_DOT": 0.00016256,
        "NORAD_CAT_ID": 40042,
        "OBJECT_ID": "2014-033AJ",
        "OBJECT_NAME": "POLYITAN-1",
        "RA_OF_ASC_NODE": 196.8009,
        "REV_AT_EPOCH": 65392
    },
    {
        "ARG_OF_PERICENTER": 67.8951,
        "BSTAR": 0.00018305756,
        "CLASSIFICATION_TYPE": "U",
        "ECCENTRICITY": 0.00505154,
        "ELEMENT_SET_NO": 999,
        "EPHEMERIS_TYPE": 0,
        "EPOCH": "2026-06-19T11:22:28.568064",
        "INCLINATION": 97.7834,
        "MEAN_ANOMALY": 292.7617,
        "MEAN_MOTION": 14.85169819,
        "MEAN_MOTION_DDOT": 0,
        "MEAN_MOTION_DOT": 1.548e-05,
        "NORAD_CAT_ID": 40043,
        "OBJECT_ID": "2014-033AK",
        "OBJECT_NAME": "TIGRISAT",
        "RA_OF_ASC_NODE": 320.433,
        "REV_AT_EPOCH": 64596
    },
    {
        "ARG_OF_PERICENTER": 10.6828,
        "BSTAR": 0.00034190132,
        "CLASSIFICATION_TYPE": "U",
        "ECCENTRICITY": 0.00387163,
        "ELEMENT_SET_NO": 999,
        "EPHEMERIS_TYPE": 0,
        "EPOCH": "2026-06-19T08:40:13.564704",
        "INCLINATION": 97.7252,
        "MEAN_ANOMALY": 349.5208,
        "MEAN_MOTION": 14.9812694,
        "MEAN_MOTION_DDOT": 0,
        "MEAN_MOTION_DOT": 4.052e-05,
        "NORAD_CAT_ID": 40045,
        "OBJECT_ID": "2014-033AM",
        "OBJECT_NAME": "AEROCUBE 6A",
        "RA_OF_ASC_NODE": 337.287,
        "REV_AT_EPOCH": 64694
    },
    {
        "ARG_OF_PERICENTER": 1.8619,
        "BSTAR": 0.00032792521,
        "CLASSIFICATION_TYPE": "U",
        "ECCENTRICITY": 0.00381505,
        "ELEMENT_SET_NO": 999,
        "EPHEMERIS_TYPE": 0,
        "EPOCH": "2026-06-19T08:40:32.046528",
        "INCLINATION": 97.7249,
        "MEAN_ANOMALY": 358.2739,
        "MEAN_MOTION": 14.99587127,
        "MEAN_MOTION_DDOT": 0,
        "MEAN_MOTION_DOT": 4.034e-05,
        "NORAD_CAT_ID": 40046,
        "OBJECT_ID": "2014-033AN",
        "OBJECT_NAME": "AEROCUBE 6B",
        "RA_OF_ASC_NODE": 337.0821,
        "REV_AT_EPOCH": 64708
    },
    {
        "ARG_OF_PERICENTER": 9.5361,
        "BSTAR": 9.2291276e-05,
        "CLASSIFICATION_TYPE": "U",
        "ECCENTRICITY": 0.00129891,
        "ELEMENT_SET_NO": 999,
        "EPHEMERIS_TYPE": 0,
        "EPOCH": "2026-06-19T14:00:32.591520",
        "INCLINATION": 98.3119,
        "MEAN_ANOMALY": 350.6094,
        "MEAN_MOTION": 14.81268197,
        "MEAN_MOTION_DDOT": 0,
        "MEAN_MOTION_DOT": 6.63e-06,
        "NORAD_CAT_ID": 40055,
        "OBJECT_ID": "2014-034C",
        "OBJECT_NAME": "CANX-4",
        "RA_OF_ASC_NODE": 45.9848,
        "REV_AT_EPOCH": 64488
    }